STARLINK-35835          
1 66569U 25268N   26068.16239991  .00031901  00000+0  11639-2 0  9992
2 66569  43.0030 349.6479 0001326 299.2565  60.8154 15.27575703 17886
2025-313BC              
1 67298U 25313BC  26068.18968176  .00075331  00000+0  26410-2 0  9997
2 67298  97.3985 144.8110 0008478 328.9209  31.1528 15.29126358  7890
